[{"OBJECT_NAME":"STARLINK-1661","OBJECT_ID":"2020-062AG","EPOCH":"2026-03-09T03:24:40.260960","MEAN_MOTION":15.30239796,"ECCENTRICITY":0.00010357,"INCLINATION":53.1612,"RA_OF_ASC_NODE":13.5256,"ARG_OF_PERICENTER":95.5841,"MEAN_ANOMALY":264.5278,"EPHEMERIS_TYPE":0,"CLASSIFICATION_TYPE":"U","NORAD_CAT_ID":46355,"ELEMENT_SET_NO":999,"REV_AT_EPOCH":30431,"BSTAR":0.0005707499,"MEAN_MOTION_DOT":0.00016603,"MEAN_MOTION_DDOT":0},{"OBJECT_NAME":"HAWK-2C","OBJECT_ID":"2021-006CT","EPOCH":"2026-03-09T16:13:22.454976","MEAN_MOTION":15.33286436,"ECCENTRICITY":0.0006943,"INCLINATION":97.2417,"RA_OF_ASC_NODE":114.9961,"ARG_OF_PERICENTER":184.0877,"MEAN_ANOMALY":176.031,"EPHEMERIS_TYPE":0,"CLASSIFICATION_TYPE":"U","NORAD_CAT_ID":47502,"ELEMENT_SET_NO":999,"REV_AT_EPOCH":28424,"BSTAR":0.00025492914,"MEAN_MOTION_DOT":8.129e-5,"MEAN_MOTION_DDOT":0}]
